LEMUR-2-DEMBITZ         
1 42842U 17042T   26068.47492167  .00020231  00000+0  76561-3 0  9991
2 42842  97.3807 250.9241 0006961  17.1421 343.0051 15.26947128473114
STARLINK-32502          
1 62116U 24222C   26068.53238193  .00024599  00000+0  89995-3 0  9995
2 62116  43.0018 137.1814 0002243 283.9837  76.0766 15.27597575 72789
